{"type": "FeatureCollection", "features": [ {"type": "Feature", "properties": {"norad_id": 66615, "name": "STARLINK-35988", "group": "last-30-days", "lat": -35.84818326655699, "lon": 75.33617592578825, "alt_km": 446.9953801113488, "timestamp": "2025-12-24T05:51:18.324075+00:00", "meta": {"OBJECT_NAME": "STARLINK-35988", "OBJECT_ID": "2025-270AD", "EPOCH": "2025-12-23T16:06:31.542624", "MEAN_MOTION": 15.40730265, "ECCENTRICITY": 2.525e-05, "INCLINATION": 42.9947, "RA_OF_ASC_NODE": 129.4869, "ARG_OF_PERICENTER": 99.5694, "MEAN_ANOMALY": 260.5191, "EPHEMERIS_TYPE": 0, "CLASSIFICATION_TYPE": "U", "NORAD_CAT_ID": 66615, "ELEMENT_SET_NO": 999, "REV_AT_EPOCH": 587, "BSTAR": 0.0011463398, "MEAN_MOTION_DOT": 0.00047931, "MEAN_MOTION_DDOT": 0}, "tle": {"line1": "1 66615U 25270AD  25357.67119841  .00047931  00000+0  11463-2 0  9999", "line2": "2 66615  42.9947 129.4869 0000252  99.5694 260.5191 15.40730265  5878"}}, "geometry": {"type": "Point", "coordinates": [75.33617592578825, -35.84818326655699]}}, {"type": "Feature", "properties": {"norad_id": 66616, "name": "STARLINK-35391", "group": "last-30-days", "lat": 26.20207953484474, "lon": 157.81747662479523, "alt_km": 440.62263430819894, "timestamp": "2025-12-24T05:51:18.324086+00:00", "meta": {"OBJECT_NAME": "STARLINK-35391", "OBJECT_ID": "2025-270AE", "EPOCH": "2025-12-23T18:47:24.441792", "MEAN_MOTION": 15.4075586, "ECCENTRICITY": 0.00023181, "INCLINATION": 43.0035, "RA_OF_ASC_NODE": 128.6027, "ARG_OF_PERICENTER": 265.0405, "MEAN_ANOMALY": 95.0187, "EPHEMERIS_TYPE": 0, "CLASSIFICATION_TYPE": "U", "NORAD_CAT_ID": 66616, "ELEMENT_SET_NO": 999, "REV_AT_EPOCH": 616, "BSTAR": 0.0014141902, "MEAN_MOTION_DOT": 0.00059344, "MEAN_MOTION_DDOT": 0}, "tle": {"line1": "1 66616U 25270AE  25357.78292178  .00059344  00000+0  14142-2 0  9995", "line2": "2 66616  43.0035 128.6027 0002318 265.0405  95.0187 15.40755860  6168"}}, "geometry": {"type": "Point", "coordinates": [157.81747662479523, 26.20207953484474]}}, {"type": "Feature", "properties": {"norad_id": 66617, "name": "STARLINK-35940", "group": "last-30-days", "lat": -46.02032977456745, "lon": 3.8573050699842866, "alt_km": 452.17626672553524, "timestamp": "2025-12-24T05:51:18.324096+00:00", "meta": {"OBJECT_NAME": "STARLINK-35940", "OBJECT_ID": "2025-271A", "EPOCH": "2025-12-23T21:00:36.316512", "MEAN_MOTION": 15.39658596, "ECCENTRICITY": 8.187e-05, "INCLINATION": 53.1585, "RA_OF_ASC_NODE": 134.6126, "ARG_OF_PERICENTER": 60.5244, "MEAN_ANOMALY": 299.5843, "EPHEMERIS_TYPE": 0, "CLASSIFICATION_TYPE": "U", "NORAD_CAT_ID": 66617, "ELEMENT_SET_NO": 999, "REV_AT_EPOCH": 592, "BSTAR": 0.0013113797, "MEAN_MOTION_DOT": 0.00052483, "MEAN_MOTION_DDOT": 0}, "tle": {"line1": "1 66617U 25271A   25357.87542033  .00052483  00000+0  13114-2 0  9990", "line2": "2 66617  53.1585 134.6126 0000818  60.5244 299.5843 15.39658596  5929"}}, "geometry": {"type": "Point", "coordinates": [3.8573050699842866, -46.02032977456745]}}, {"type": "Feature", "properties": {"norad_id": 66618, "name": "STARLINK-35970", "group": "last-30-days", "lat": -16.902001227230592, "lon": -34.591406730924554, "alt_km": 433.0343204525516, "timestamp": "2025-12-24T05:51:18.324109+00:00", "meta": {"OBJECT_NAME": "STARLINK-35970", "OBJECT_ID": "2025-271B", "EPOCH": "2025-12-24T00:00:00.999648", "MEAN_MOTION": 15.45574421, "ECCENTRICITY": 0.00013275, "INCLINATION": 53.1596, "RA_OF_ASC_NODE": 133.4004, "ARG_OF_PERICENTER": 77.0616, "MEAN_ANOMALY": 206.0151, "EPHEMERIS_TYPE": 0, "CLASSIFICATION_TYPE": "U", "NORAD_CAT_ID": 66618, "ELEMENT_SET_NO": 999, "REV_AT_EPOCH": 605, "BSTAR": -0.00053875513, "MEAN_MOTION_DOT": -0.00026656, "MEAN_MOTION_DDOT": 0}, "tle": {"line1": "1 66618U 25271B   25358.00001157 -.00026656  00000+0 -53876-3 0  9999", "line2": "2 66618  53.1596 133.4004 0001327  77.0616 206.0151 15.45574421  6057"}}, "geometry": {"type": "Point", "coordinates": [-34.591406730924554, -16.902001227230592]}}, {"type": "Feature", "properties": {"norad_id": 66619, "name": "STARLINK-35951", "group": "last-30-days", "lat": 46.107217766685814, "lon": -98.77881852423158, "alt_km": 440.2522004847515, "timestamp": "2025-12-24T05:51:18.324120+00:00", "meta": {"OBJECT_NAME": "STARLINK-35951", "OBJECT_ID": "2025-271C", "EPOCH": "2025-12-24T00:00:00.999648", "MEAN_MOTION": 15.3960936, "ECCENTRICITY": 0.00014893, "INCLINATION": 53.1598, "RA_OF_ASC_NODE": 133.565, "ARG_OF_PERICENTER": 82.2806, "MEAN_ANOMALY": 120.5418, "EPHEMERIS_TYPE": 0, "CLASSIFICATION_TYPE": "U", "NORAD_CAT_ID": 66619, "ELEMENT_SET_NO": 999, "REV_AT_EPOCH": 605, "BSTAR": -5.0354667e-05, "MEAN_MOTION_DOT": -2.412e-05, "MEAN_MOTION_DDOT": 0}, "tle": {"line1": "1 66619U 25271C   25358.00001157 -.00002412  00000+0 -50355-4 0  9994", "line2": "2 66619  53.1598 133.5650 0001489  82.2806 120.5418 15.39609360  6056"}}, "geometry": {"type": "Point", "coordinates": [-98.77881852423158, 46.107217766685814]}}, {"type": "Feature", "properties": {"norad_id": 66620, "name": "STARLINK-35936", "group": "last-30-days", "lat": 46.05682306466425, "lon": -176.41303716037805, "alt_km": 440.4309959362672, "timestamp": "2025-12-24T05:51:18.324131+00:00", "meta": {"OBJECT_NAME": "STARLINK-35936", "OBJECT_ID": "2025-271D", "EPOCH": "2025-12-24T00:00:00.999648", "MEAN_MOTION": 15.39610515, "ECCENTRICITY": 9.911e-05, "INCLINATION": 53.1602, "RA_OF_ASC_NODE": 133.6689, "ARG_OF_PERICENTER": 64.9154, "MEAN_ANOMALY": 86.3891, "EPHEMERIS_TYPE": 0, "CLASSIFICATION_TYPE": "U", "NORAD_CAT_ID": 66620, "ELEMENT_SET_NO": 999, "REV_AT_EPOCH": 605, "BSTAR": 2.7225272e-05, "MEAN_MOTION_DOT": 6.9e-06, "MEAN_MOTION_DDOT": 0}, "tle": {"line1": "1 66620U 25271D   25358.00001157  .00000690  00000+0  27225-4 0  9990", "line2": "2 66620  53.1602 133.6689 0000991  64.9154  86.3891 15.39610515  6055"}}, "geometry": {"type": "Point", "coordinates": [-176.41303716037805, 46.05682306466425]}}, {"type": "Feature", "properties": {"norad_id": 66621, "name": "STARLINK-35847", "group": "last-30-days", "lat": -19.653461964611104, "lon": -32.23654284365721, "alt_km": 433.30805253265316, "timestamp": "2025-12-24T05:51:18.324143+00:00", "meta": {"OBJECT_NAME": "STARLINK-35847", "OBJECT_ID": "2025-271E", "EPOCH": "2025-12-24T00:00:00.999648", "MEAN_MOTION": 15.45609394, "ECCENTRICITY": 0.00012535, "INCLINATION": 53.1595, "RA_OF_ASC_NODE": 133.3929, "ARG_OF_PERICENTER": 77.8592, "MEAN_ANOMALY": 208.7571, "EPHEMERIS_TYPE": 0, "CLASSIFICATION_TYPE": "U", "NORAD_CAT_ID": 66621, "ELEMENT_SET_NO": 999, "REV_AT_EPOCH": 605, "BSTAR": -0.0022043392, "MEAN_MOTION_DOT": -0.00106767, "MEAN_MOTION_DDOT": 0}, "tle": {"line1": "1 66621U 25271E   25358.00001157 -.00106767  00000+0 -22043-2 0  9996", "line2": "2 66621  53.1595 133.3929 0001253  77.8592 208.7571 15.45609394  6057"}}, "geometry": {"type": "Point", "coordinates": [-32.23654284365721, -19.653461964611104]}}, {"type": "Feature", "properties": {"norad_id": 66622, "name": "STARLINK-35950", "group": "last-30-days", "lat": -10.469090321598038, "lon": 124.70625098165523, "alt_km": 449.3925877780839, "timestamp": "2025-12-24T05:51:18.324156+00:00", "meta": {"OBJECT_NAME": "STARLINK-35950", "OBJECT_ID": "2025-271F", "EPOCH": "2025-12-23T20:33:51.871104", "MEAN_MOTION": 15.39628761, "ECCENTRICITY": 0.00012356, "INCLINATION": 53.1606, "RA_OF_ASC_NODE": 134.4937, "ARG_OF_PERICENTER": 87.3502, "MEAN_ANOMALY": 272.7644, "EPHEMERIS_TYPE": 0, "CLASSIFICATION_TYPE": "U", "NORAD_CAT_ID": 66622, "ELEMENT_SET_NO": 999, "REV_AT_EPOCH": 592, "BSTAR": 0.0015005458, "MEAN_MOTION_DOT": 0.00060113, "MEAN_MOTION_DDOT": 0}, "tle": {"line1": "1 66622U 25271F   25357.85685036  .00060113  00000+0  15005-2 0  9995", "line2": "2 66622  53.1606 134.4937 0001235  87.3502 272.7644 15.39628761  5928"}}, "geometry": {"type": "Point", "coordinates": [124.70625098165523, -10.469090321598038]}}, {"type": "Feature", "properties": {"norad_id": 66623, "name": "STARLINK-35920", "group": "last-30-days", "lat": -46.2575978417665, "lon": 81.20011811449424, "alt_km": 452.2353687221439, "timestamp": "2025-12-24T05:51:18.324166+00:00", "meta": {"OBJECT_NAME": "STARLINK-35920", "OBJECT_ID": "2025-271G", "EPOCH": "2025-12-23T20:47:13.987968", "MEAN_MOTION": 15.39633862, "ECCENTRICITY": 8.352e-05, "INCLINATION": 53.1604, "RA_OF_ASC_NODE": 134.5503, "ARG_OF_PERICENTER": 99.7936, "MEAN_ANOMALY": 260.3163, "EPHEMERIS_TYPE": 0, "CLASSIFICATION_TYPE": "U", "NORAD_CAT_ID": 66623, "ELEMENT_SET_NO": 999, "REV_AT_EPOCH": 592, "BSTAR": 0.0014611701, "MEAN_MOTION_DOT": 0.00058522, "MEAN_MOTION_DDOT": 0}, "tle": {"line1": "1 66623U 25271G   25357.86613412  .00058522  00000+0  14612-2 0  9990", "line2": "2 66623  53.1604 134.5503 0000835  99.7936 260.3163 15.39633862  5927"}}, "geometry": {"type": "Point", "coordinates": [81.20011811449424, -46.2575978417665]}}, {"type": "Feature", "properties": {"norad_id": 66624, "name": "STARLINK-35927", "group": "last-30-days", "lat": 29.896753227407537, "lon": -73.16926204958969, "alt_km": 443.377795929081, "timestamp": "2025-12-24T05:51:18.324176+00:00", "meta": {"OBJECT_NAME": "STARLINK-35927", "OBJECT_ID": "2025-271H", "EPOCH": "2025-12-24T00:00:00.999648", "MEAN_MOTION": 15.39540125, "ECCENTRICITY": 7.099e-05, "INCLINATION": 53.1599, "RA_OF_ASC_NODE": 133.5147, "ARG_OF_PERICENTER": 113.448, "MEAN_ANOMALY": 115.1154, "EPHEMERIS_TYPE": 0, "CLASSIFICATION_TYPE": "U", "NORAD_CAT_ID": 66624, "ELEMENT_SET_NO": 999, "REV_AT_EPOCH": 605, "BSTAR": 0.00061004607, "MEAN_MOTION_DOT": 0.00024015, "MEAN_MOTION_DDOT": 0}, "tle": {"line1": "1 66624U 25271H   25358.00001157  .00024015  00000+0  61005-3 0  9994", "line2": "2 66624  53.1599 133.5147 0000709 113.4480 115.1154 15.39540125  6053"}}, "geometry": {"type": "Point", "coordinates": [-73.16926204958969, 29.896753227407537]}}]}